{
  "type": "FeatureCollection",
  "features": [
    {
      "type": "Feature",
      "properties": {
        "norad_id": 35432,
        "name": "COSMOS 2251 DEB",
        "group": "cosmos-2251-debris",
        "lat": 38.320582868833874,
        "lon": -176.99920607444395,
        "alt_km": 501.81413385432006,
        "timestamp": "2025-12-12T11:38:31.808682+00:00",
        "meta_object_name": "COSMOS 2251 DEB",
        "meta_object_id": "1993-036AKA",
        "meta_epoch": "2025-12-12T01:34:13.253952",
        "meta_mean_motion": 15.22745879,
        "meta_eccentricity": 0.0012212,
        "meta_inclination": 74.023,
        "meta_ra_of_asc_node": 16.9721,
        "meta_arg_of_pericenter": 343.1165,
        "meta_mean_anomaly": 16.9626,
        "meta_ephemeris_type": 0,
        "meta_classification_type": "U",
        "meta_norad_cat_id": 35432,
        "meta_element_set_no": 999,
        "meta_rev_at_epoch": 87493,
        "meta_bstar": 0.0062046,
        "meta_mean_motion_dot": 0.00148065,
        "meta_mean_motion_ddot": 0,
        "tle_line1": "1 35432U 93036AKA 25346.06543118  .00148065  00000+0  62046-2 0  9999",
        "tle_line2": "2 35432  74.0230  16.9721 0012212 343.1165  16.9626 15.22745879874933"
      },
      "geometry": {
        "type": "Point",
        "coordinates": [
          -176.99920607444395,
          38.320582868833874
        ]
      }
    },
    {
      "type": "Feature",
      "properties": {
        "norad_id": 35433,
        "name": "COSMOS 2251 DEB",
        "group": "cosmos-2251-debris",
        "lat": 36.448607102098805,
        "lon": -8.879457120389667,
        "alt_km": 754.8667132110486,
        "timestamp": "2025-12-12T11:38:31.808692+00:00",
        "meta_object_name": "COSMOS 2251 DEB",
        "meta_object_id": "1993-036AKB",
        "meta_epoch": "2025-12-10T18:27:52.031808",
        "meta_mean_motion": 14.34742553,
        "meta_eccentricity": 0.00254013,
        "meta_inclination": 74.0339,
        "meta_ra_of_asc_node": 342.0559,
        "meta_arg_of_pericenter": 37.4572,
        "meta_mean_anomaly": 142.4072,
        "meta_ephemeris_type": 0,
        "meta_classification_type": "U",
        "meta_norad_cat_id": 35433,
        "meta_element_set_no": 999,
        "meta_rev_at_epoch": 86552,
        "meta_bstar": 0.00041847558,
        "meta_mean_motion_dot": 1.164e-05,
        "meta_mean_motion_ddot": 0,
        "tle_line1": "1 35433U 93036AKB 25344.76935222  .00001164  00000+0  41848-3 0  9992",
        "tle_line2": "2 35433  74.0339 342.0559 0025401  37.4572 142.4072 14.34742553865528"
      },
      "geometry": {
        "type": "Point",
        "coordinates": [
          -8.879457120389667,
          36.448607102098805
        ]
      }
    },
    {
      "type": "Feature",
      "properties": {
        "norad_id": 35434,
        "name": "COSMOS 2251 DEB",
        "group": "cosmos-2251-debris",
        "lat": -36.276780320950714,
        "lon": -158.03837465736626,
        "alt_km": 761.9002236415608,
        "timestamp": "2025-12-12T11:38:31.808702+00:00",
        "meta_object_name": "COSMOS 2251 DEB",
        "meta_object_id": "1993-036AKC",
        "meta_epoch": "2025-12-11T08:52:23.274048",
        "meta_mean_motion": 14.25682257,
        "meta_eccentricity": 0.00875072,
        "meta_inclination": 74.0403,
        "meta_ra_of_asc_node": 216.0983,
        "meta_arg_of_pericenter": 287.1245,
        "meta_mean_anomaly": 72.0334,
        "meta_ephemeris_type": 0,
        "meta_classification_type": "U",
        "meta_norad_cat_id": 35434,
        "meta_element_set_no": 999,
        "meta_rev_at_epoch": 86098,
        "meta_bstar": 0.00095825855,
        "meta_mean_motion_dot": 2.34e-05,
        "meta_mean_motion_ddot": 0,
        "tle_line1": "1 35434U 93036AKC 25345.36971382  .00002340  00000+0  95826-3 0  9999",
        "tle_line2": "2 35434  74.0403 216.0983 0087507 287.1245  72.0334 14.25682257860986"
      },
      "geometry": {
        "type": "Point",
        "coordinates": [
          -158.03837465736626,
          -36.276780320950714
        ]
      }
    },
    {
      "type": "Feature",
      "properties": {
        "norad_id": 35435,
        "name": "COSMOS 2251 DEB",
        "group": "cosmos-2251-debris",
        "lat": 67.6149013631762,
        "lon": -119.55875851246117,
        "alt_km": 627.5020323068857,
        "timestamp": "2025-12-12T11:38:31.808713+00:00",
        "meta_object_name": "COSMOS 2251 DEB",
        "meta_object_id": "1993-036AKD",
        "meta_epoch": "2025-12-11T01:35:23.280288",
        "meta_mean_motion": 14.78375379,
        "meta_eccentricity": 0.00082091,
        "meta_inclination": 74.0093,
        "meta_ra_of_asc_node": 107.3593,
        "meta_arg_of_pericenter": 201.1094,
        "meta_mean_anomaly": 276.4559,
        "meta_ephemeris_type": 0,
        "meta_classification_type": "U",
        "meta_norad_cat_id": 35435,
        "meta_element_set_no": 999,
        "meta_rev_at_epoch": 87514,
        "meta_bstar": 0.0035391532,
        "meta_mean_motion_dot": 0.00025849,
        "meta_mean_motion_ddot": 0,
        "tle_line1": "1 35435U 93036AKD 25345.06624167  .00025849  00000+0  35392-2 0  9993",
        "tle_line2": "2 35435  74.0093 107.3593 0008209 201.1094 276.4559 14.78375379875146"
      },
      "geometry": {
        "type": "Point",
        "coordinates": [
          -119.55875851246117,
          67.6149013631762
        ]
      }
    },
    {
      "type": "Feature",
      "properties": {
        "norad_id": 35439,
        "name": "COSMOS 2251 DEB",
        "group": "cosmos-2251-debris",
        "lat": 61.34573044963482,
        "lon": -76.45017540669521,
        "alt_km": 1085.9453767630448,
        "timestamp": "2025-12-12T11:38:31.808723+00:00",
        "meta_object_name": "COSMOS 2251 DEB",
        "meta_object_id": "1993-036AKH",
        "meta_epoch": "2025-12-11T04:55:48.885888",
        "meta_mean_motion": 13.92796753,
        "meta_eccentricity": 0.02419274,
        "meta_inclination": 74.0198,
        "meta_ra_of_asc_node": 137.3683,
        "meta_arg_of_pericenter": 307.011,
        "meta_mean_anomaly": 232.6694,
        "meta_ephemeris_type": 0,
        "meta_classification_type": "U",
        "meta_norad_cat_id": 35439,
        "meta_element_set_no": 999,
        "meta_rev_at_epoch": 83939,
        "meta_bstar": 0.0020869419,
        "meta_mean_motion_dot": 3.412e-05,
        "meta_mean_motion_ddot": 0,
        "tle_line1": "1 35439U 93036AKH 25345.20542692  .00003412  00000+0  20869-2 0  9990",
        "tle_line2": "2 35439  74.0198 137.3683 0241927 307.0110 232.6694 13.92796753839399"
      },
      "geometry": {
        "type": "Point",
        "coordinates": [
          -76.45017540669521,
          61.34573044963482
        ]
      }
    },
    {
      "type": "Feature",
      "properties": {
        "norad_id": 35440,
        "name": "COSMOS 2251 DEB",
        "group": "cosmos-2251-debris",
        "lat": 60.10940745756189,
        "lon": -1.7933279676833975,
        "alt_km": 687.4815701455927,
        "timestamp": "2025-12-12T11:38:31.808733+00:00",
        "meta_object_name": "COSMOS 2251 DEB",
        "meta_object_id": "1993-036AKJ",
        "meta_epoch": "2025-12-10T08:26:45.842208",
        "meta_mean_motion": 14.68793955,
        "meta_eccentricity": 0.00692048,
        "meta_inclination": 74.0146,
        "meta_ra_of_asc_node": 212.2531,
        "meta_arg_of_pericenter": 353.6751,
        "meta_mean_anomaly": 6.3537,
        "meta_ephemeris_type": 0,
        "meta_classification_type": "U",
        "meta_norad_cat_id": 35440,
        "meta_element_set_no": 999,
        "meta_rev_at_epoch": 68730,
        "meta_bstar": 0.0006737672,
        "meta_mean_motion_dot": 4.046e-05,
        "meta_mean_motion_ddot": 0,
        "tle_line1": "1 35440U 93036AKJ 25344.35191947  .00004046  00000+0  67377-3 0  9990",
        "tle_line2": "2 35440  74.0146 212.2531 0069204 353.6751   6.3537 14.68793955687302"
      },
      "geometry": {
        "type": "Point",
        "coordinates": [
          -1.7933279676833975,
          60.10940745756189
        ]
      }
    },
    {
      "type": "Feature",
      "properties": {
        "norad_id": 35441,
        "name": "COSMOS 2251 DEB",
        "group": "cosmos-2251-debris",
        "lat": 67.50379667825467,
        "lon": -18.042351695684395,
        "alt_km": 691.5582853955175,
        "timestamp": "2025-12-12T11:38:31.808743+00:00",
        "meta_object_name": "COSMOS 2251 DEB",
        "meta_object_id": "1993-036AKK",
        "meta_epoch": "2025-12-11T13:57:45.009216",
        "meta_mean_motion": 14.62564221,
        "meta_eccentricity": 0.00369307,
        "meta_inclination": 74.1343,
        "meta_ra_of_asc_node": 300.3057,
        "meta_arg_of_pericenter": 197.5882,
        "meta_mean_anomaly": 162.401,
        "meta_ephemeris_type": 0,
        "meta_classification_type": "U",
        "meta_norad_cat_id": 35441,
        "meta_element_set_no": 999,
        "meta_rev_at_epoch": 87413,
        "meta_bstar": 0.0026744253,
        "meta_mean_motion_dot": 0.00013709,
        "meta_mean_motion_ddot": 0,
        "tle_line1": "1 35441U 93036AKK 25345.58177094  .00013709  00000+0  26744-2 0  9992",
        "tle_line2": "2 35441  74.1343 300.3057 0036930 197.5882 162.4010 14.62564221874130"
      },
      "geometry": {
        "type": "Point",
        "coordinates": [
          -18.042351695684395,
          67.50379667825467
        ]
      }
    }
  ]
}